{"type": "FeatureCollection", "comment": "SYNTHETIC demonstration geometries. Not live cadastral data.", "features": [{"type": "Feature", "properties": {"ulpin": "SYN00000000061", "khasra_number": "1/61", "data_source": "SYNTHETIC"}, "geometry": {"type": "MultiPolygon", "coordinates": [[[[78.2698, 17.2309], [78.2722, 17.2309], [78.2722, 17.2333], [78.2698, 17.2333], [78.2698, 17.2309]]]]}}, {"type": "Feature", "properties": {"ulpin": "SYN00000000062", "khasra_number": "2/62", "data_source": "SYNTHETIC"}, "geometry": {"type": "MultiPolygon", "coordinates": [[[[78.2709, 17.2429], [78.27329999999999, 17.2429], [78.27329999999999, 17.2453], [78.2709, 17.2453], [78.2709, 17.2429]]]]}}, {"type": "Feature", "properties": {"ulpin": "SYN00000000063", "khasra_number": "3/63", "data_source": "SYNTHETIC"}, "geometry": {"type": "MultiPolygon", "coordinates": [[[[78.272, 17.2549], [78.2744, 17.2549], [78.2744, 17.2573], [78.272, 17.2573], [78.272, 17.2549]]]]}}, {"type": "Feature", "properties": {"ulpin": "SYN00000000064", "khasra_number": "4/64", "data_source": "SYNTHETIC"}, "geometry": {"type": "MultiPolygon", "coordinates": [[[[78.2731, 17.2669], [78.2755, 17.2669], [78.2755, 17.2693], [78.2731, 17.2693], [78.2731, 17.2669]]]]}}, {"type": "Feature", "properties": {"ulpin": "SYN00000000065", "khasra_number": "5/65", "data_source": "SYNTHETIC"}, "geometry": {"type": "MultiPolygon", "coordinates": [[[[78.27420000000001, 17.2789], [78.2766, 17.2789], [78.2766, 17.2813], [78.27420000000001, 17.2813], [78.27420000000001, 17.2789]]]]}}, {"type": "Feature", "properties": {"ulpin": "SYN00000000066", "khasra_number": "6/66", "data_source": "SYNTHETIC"}, "geometry": {"type": "MultiPolygon", "coordinates": [[[[78.2893, 17.2309], [78.29169999999999, 17.2309], [78.29169999999999, 17.2333], [78.2893, 17.2333], [78.2893, 17.2309]]]]}}, {"type": "Feature", "properties": {"ulpin": "SYN00000000067", "khasra_number": "7/67", "data_source": "SYNTHETIC"}, "geometry": {"type": "MultiPolygon", "coordinates": [[[[78.2904, 17.2429], [78.2928, 17.2429], [78.2928, 17.2453], [78.2904, 17.2453], [78.2904, 17.2429]]]]}}, {"type": "Feature", "properties": {"ulpin": "SYN00000000068", "khasra_number": "8/68", "data_source": "SYNTHETIC"}, "geometry": {"type": "MultiPolygon", "coordinates": [[[[78.2915, 17.2549], [78.2939, 17.2549], [78.2939, 17.2573], [78.2915, 17.2573], [78.2915, 17.2549]]]]}}, {"type": "Feature", "properties": {"ulpin": "SYN00000000069", "khasra_number": "9/69", "data_source": "SYNTHETIC"}, "geometry": {"type": "MultiPolygon", "coordinates": [[[[78.2926, 17.2669], [78.29499999999999, 17.2669], [78.29499999999999, 17.2693], [78.2926, 17.2693], [78.2926, 17.2669]]]]}}, {"type": "Feature", "properties": {"ulpin": "SYN00000000070", "khasra_number": "10/70", "data_source": "SYNTHETIC"}, "geometry": {"type": "MultiPolygon", "coordinates": [[[[78.2937, 17.2789], [78.2961, 17.2789], [78.2961, 17.2813], [78.2937, 17.2813], [78.2937, 17.2789]]]]}}, {"type": "Feature", "properties": {"ulpin": "SYN00000000071", "khasra_number": "1/71", "data_source": "SYNTHETIC"}, "geometry": {"type": "MultiPolygon", "coordinates": [[[[73.84150000000001, 18.497299999999996], [73.8439, 18.497299999999996], [73.8439, 18.499699999999997], [73.84150000000001, 18.499699999999997], [73.84150000000001, 18.497299999999996]]]]}}, {"type": "Feature", "properties": {"ulpin": "SYN00000000072", "khasra_number": "2/72", "data_source": "SYNTHETIC"}, "geometry": {"type": "MultiPolygon", "coordinates": [[[[73.8426, 18.509299999999996], [73.845, 18.509299999999996], [73.845, 18.511699999999998], [73.8426, 18.511699999999998], [73.8426, 18.509299999999996]]]]}}, {"type": "Feature", "properties": {"ulpin": "SYN00000000073", "khasra_number": "3/73", "data_source": "SYNTHETIC"}, "geometry": {"type": "MultiPolygon", "coordinates": [[[[73.84370000000001, 18.521299999999997], [73.8461, 18.521299999999997], [73.8461, 18.523699999999998], [73.84370000000001, 18.523699999999998], [73.84370000000001, 18.521299999999997]]]]}}, {"type": "Feature", "properties": {"ulpin": "SYN00000000074", "khasra_number": "4/74", "data_source": "SYNTHETIC"}, "geometry": {"type": "MultiPolygon", "coordinates": [[[[73.8448, 18.533299999999997], [73.8472, 18.533299999999997], [73.8472, 18.5357], [73.8448, 18.5357], [73.8448, 18.533299999999997]]]]}}, {"type": "Feature", "properties": {"ulpin": "SYN00000000075", "khasra_number": "5/75", "data_source": "SYNTHETIC"}, "geometry": {"type": "MultiPolygon", "coordinates": [[[[73.84590000000001, 18.545299999999997], [73.84830000000001, 18.545299999999997], [73.84830000000001, 18.5477], [73.84590000000001, 18.5477], [73.84590000000001, 18.545299999999997]]]]}}, {"type": "Feature", "properties": {"ulpin": "SYN00000000076", "khasra_number": "6/76", "data_source": "SYNTHETIC"}, "geometry": {"type": "MultiPolygon", "coordinates": [[[[73.861, 18.497299999999996], [73.8634, 18.497299999999996], [73.8634, 18.499699999999997], [73.861, 18.499699999999997], [73.861, 18.497299999999996]]]]}}, {"type": "Feature", "properties": {"ulpin": "SYN00000000077", "khasra_number": "7/77", "data_source": "SYNTHETIC"}, "geometry": {"type": "MultiPolygon", "coordinates": [[[[73.86210000000001, 18.509299999999996], [73.8645, 18.509299999999996], [73.8645, 18.511699999999998], [73.86210000000001, 18.511699999999998], [73.86210000000001, 18.509299999999996]]]]}}, {"type": "Feature", "properties": {"ulpin": "SYN00000000078", "khasra_number": "8/78", "data_source": "SYNTHETIC"}, "geometry": {"type": "MultiPolygon", "coordinates": [[[[73.8632, 18.521299999999997], [73.8656, 18.521299999999997], [73.8656, 18.523699999999998], [73.8632, 18.523699999999998], [73.8632, 18.521299999999997]]]]}}, {"type": "Feature", "properties": {"ulpin": "SYN00000000079", "khasra_number": "9/79", "data_source": "SYNTHETIC"}, "geometry": {"type": "MultiPolygon", "coordinates": [[[[73.8643, 18.533299999999997], [73.8667, 18.533299999999997], [73.8667, 18.5357], [73.8643, 18.5357], [73.8643, 18.533299999999997]]]]}}, {"type": "Feature", "properties": {"ulpin": "SYN00000000080", "khasra_number": "10/80", "data_source": "SYNTHETIC"}, "geometry": {"type": "MultiPolygon", "coordinates": [[[[73.86540000000001, 18.545299999999997], [73.8678, 18.545299999999997], [73.8678, 18.5477], [73.86540000000001, 18.5477], [73.86540000000001, 18.545299999999997]]]]}}, {"type": "Feature", "properties": {"ulpin": "SYN00000000053", "khasra_number": "3/53", "data_source": "SYNTHETIC"}, "geometry": {"type": "MultiPolygon", "coordinates": [[[[85.605, 20.182299999999998], [85.6074, 20.182299999999998], [85.6074, 20.1847], [85.605, 20.1847], [85.605, 20.182299999999998]]]]}}, {"type": "Feature", "properties": {"ulpin": "SYN00000000012", "khasra_number": "2/12", "data_source": "SYNTHETIC"}, "geometry": {"type": "MultiPolygon", "coordinates": [[[[78.4726, 17.3721], [78.475, 17.3721], [78.475, 17.3745], [78.4726, 17.3745], [78.4726, 17.3721]]]]}}, {"type": "Feature", "properties": {"ulpin": "SYN00000000014", "khasra_number": "4/14", "data_source": "SYNTHETIC"}, "geometry": {"type": "MultiPolygon", "coordinates": [[[[78.4748, 17.3961], [78.4772, 17.3961], [78.4772, 17.398500000000002], [78.4748, 17.398500000000002], [78.4748, 17.3961]]]]}}, {"type": "Feature", "properties": {"ulpin": "SYN00000000031", "khasra_number": "1/31", "data_source": "SYNTHETIC"}, "geometry": {"type": "MultiPolygon", "coordinates": [[[[73.84150000000001, 18.4961], [73.8439, 18.4961], [73.8439, 18.4985], [73.84150000000001, 18.4985], [73.84150000000001, 18.4961]]]]}}, {"type": "Feature", "properties": {"ulpin": "SYN00000000041", "khasra_number": "1/41", "data_source": "SYNTHETIC"}, "geometry": {"type": "MultiPolygon", "coordinates": [[[[85.8678, 20.438499999999998], [85.8702, 20.438499999999998], [85.8702, 20.4409], [85.8678, 20.4409], [85.8678, 20.438499999999998]]]]}}, {"type": "Feature", "properties": {"ulpin": "SYN00000000026", "khasra_number": "6/26", "data_source": "SYNTHETIC"}, "geometry": {"type": "MultiPolygon", "coordinates": [[[[79.0925, 21.121199999999998], [79.0949, 21.121199999999998], [79.0949, 21.1236], [79.0925, 21.1236], [79.0925, 21.121199999999998]]]]}}, {"type": "Feature", "properties": {"ulpin": "SYN00000000021", "khasra_number": "1/21", "data_source": "SYNTHETIC"}, "geometry": {"type": "MultiPolygon", "coordinates": [[[[79.07300000000001, 21.121199999999998], [79.0754, 21.121199999999998], [79.0754, 21.1236], [79.07300000000001, 21.1236], [79.07300000000001, 21.121199999999998]]]]}}, {"type": "Feature", "properties": {"ulpin": "SYN00000000009", "khasra_number": "9/9", "data_source": "SYNTHETIC"}, "geometry": {"type": "MultiPolygon", "coordinates": [[[[78.2926, 17.2651], [78.29499999999999, 17.2651], [78.29499999999999, 17.267500000000002], [78.2926, 17.267500000000002], [78.2926, 17.2651]]]]}}, {"type": "Feature", "properties": {"ulpin": "SYN00000000039", "khasra_number": "9/39", "data_source": "SYNTHETIC"}, "geometry": {"type": "MultiPolygon", "coordinates": [[[[73.8643, 18.5321], [73.8667, 18.5321], [73.8667, 18.5345], [73.8643, 18.5345], [73.8643, 18.5321]]]]}}, {"type": "Feature", "properties": {"ulpin": "SYN00000000008", "khasra_number": "8/8", "data_source": "SYNTHETIC"}, "geometry": {"type": "MultiPolygon", "coordinates": [[[[78.2915, 17.2531], [78.2939, 17.2531], [78.2939, 17.2555], [78.2915, 17.2555], [78.2915, 17.2531]]]]}}, {"type": "Feature", "properties": {"ulpin": "SYN00000000030", "khasra_number": "10/30", "data_source": "SYNTHETIC"}, "geometry": {"type": "MultiPolygon", "coordinates": [[[[79.0969, 21.1692], [79.0993, 21.1692], [79.0993, 21.1716], [79.0969, 21.1716], [79.0969, 21.1692]]]]}}, {"type": "Feature", "properties": {"ulpin": "SYN00000000010", "khasra_number": "10/10", "data_source": "SYNTHETIC"}, "geometry": {"type": "MultiPolygon", "coordinates": [[[[78.2937, 17.2771], [78.2961, 17.2771], [78.2961, 17.279500000000002], [78.2937, 17.279500000000002], [78.2937, 17.2771]]]]}}, {"type": "Feature", "properties": {"ulpin": "SYN00000000060", "khasra_number": "10/60", "data_source": "SYNTHETIC"}, "geometry": {"type": "MultiPolygon", "coordinates": [[[[85.6267, 20.2063], [85.6291, 20.2063], [85.6291, 20.2087], [85.6267, 20.2087], [85.6267, 20.2063]]]]}}, {"type": "Feature", "properties": {"ulpin": "SYN00000000029", "khasra_number": "9/29", "data_source": "SYNTHETIC"}, "geometry": {"type": "MultiPolygon", "coordinates": [[[[79.0958, 21.1572], [79.09819999999999, 21.1572], [79.09819999999999, 21.1596], [79.0958, 21.1596], [79.0958, 21.1572]]]]}}, {"type": "Feature", "properties": {"ulpin": "SYN00000000036", "khasra_number": "6/36", "data_source": "SYNTHETIC"}, "geometry": {"type": "MultiPolygon", "coordinates": [[[[73.861, 18.4961], [73.8634, 18.4961], [73.8634, 18.4985], [73.861, 18.4985], [73.861, 18.4961]]]]}}, {"type": "Feature", "properties": {"ulpin": "SYN00000000050", "khasra_number": "10/50", "data_source": "SYNTHETIC"}, "geometry": {"type": "MultiPolygon", "coordinates": [[[[85.8917, 20.4865], [85.8941, 20.4865], [85.8941, 20.4889], [85.8917, 20.4889], [85.8917, 20.4865]]]]}}, {"type": "Feature", "properties": {"ulpin": "SYN00000000001", "khasra_number": "1/1", "data_source": "SYNTHETIC"}, "geometry": {"type": "MultiPolygon", "coordinates": [[[[78.2698, 17.2291], [78.2722, 17.2291], [78.2722, 17.2315], [78.2698, 17.2315], [78.2698, 17.2291]]]]}}, {"type": "Feature", "properties": {"ulpin": "SYN00000000024", "khasra_number": "4/24", "data_source": "SYNTHETIC"}, "geometry": {"type": "MultiPolygon", "coordinates": [[[[79.0763, 21.1572], [79.0787, 21.1572], [79.0787, 21.1596], [79.0763, 21.1596], [79.0763, 21.1572]]]]}}, {"type": "Feature", "properties": {"ulpin": "SYN00000000051", "khasra_number": "1/51", "data_source": "SYNTHETIC"}, "geometry": {"type": "MultiPolygon", "coordinates": [[[[85.6028, 20.158299999999997], [85.6052, 20.158299999999997], [85.6052, 20.1607], [85.6028, 20.1607], [85.6028, 20.158299999999997]]]]}}, {"type": "Feature", "properties": {"ulpin": "SYN00000000027", "khasra_number": "7/27", "data_source": "SYNTHETIC"}, "geometry": {"type": "MultiPolygon", "coordinates": [[[[79.09360000000001, 21.1332], [79.096, 21.1332], [79.096, 21.1356], [79.09360000000001, 21.1356], [79.09360000000001, 21.1332]]]]}}, {"type": "Feature", "properties": {"ulpin": "SYN00000000005", "khasra_number": "5/5", "data_source": "SYNTHETIC"}, "geometry": {"type": "MultiPolygon", "coordinates": [[[[78.27420000000001, 17.2771], [78.2766, 17.2771], [78.2766, 17.279500000000002], [78.27420000000001, 17.279500000000002], [78.27420000000001, 17.2771]]]]}}, {"type": "Feature", "properties": {"ulpin": "SYN00000000057", "khasra_number": "7/57", "data_source": "SYNTHETIC"}, "geometry": {"type": "MultiPolygon", "coordinates": [[[[85.6234, 20.170299999999997], [85.6258, 20.170299999999997], [85.6258, 20.1727], [85.6234, 20.1727], [85.6234, 20.170299999999997]]]]}}, {"type": "Feature", "properties": {"ulpin": "SYN00000000007", "khasra_number": "7/7", "data_source": "SYNTHETIC"}, "geometry": {"type": "MultiPolygon", "coordinates": [[[[78.2904, 17.2411], [78.2928, 17.2411], [78.2928, 17.2435], [78.2904, 17.2435], [78.2904, 17.2411]]]]}}, {"type": "Feature", "properties": {"ulpin": "SYN00000000018", "khasra_number": "8/18", "data_source": "SYNTHETIC"}, "geometry": {"type": "MultiPolygon", "coordinates": [[[[78.4932, 17.3841], [78.4956, 17.3841], [78.4956, 17.3865], [78.4932, 17.3865], [78.4932, 17.3841]]]]}}, {"type": "Feature", "properties": {"ulpin": "SYN00000000059", "khasra_number": "9/59", "data_source": "SYNTHETIC"}, "geometry": {"type": "MultiPolygon", "coordinates": [[[[85.62559999999999, 20.1943], [85.62799999999999, 20.1943], [85.62799999999999, 20.1967], [85.62559999999999, 20.1967], [85.62559999999999, 20.1943]]]]}}, {"type": "Feature", "properties": {"ulpin": "SYN00000000023", "khasra_number": "3/23", "data_source": "SYNTHETIC"}, "geometry": {"type": "MultiPolygon", "coordinates": [[[[79.07520000000001, 21.1452], [79.0776, 21.1452], [79.0776, 21.1476], [79.07520000000001, 21.1476], [79.07520000000001, 21.1452]]]]}}, {"type": "Feature", "properties": {"ulpin": "SYN00000000038", "khasra_number": "8/38", "data_source": "SYNTHETIC"}, "geometry": {"type": "MultiPolygon", "coordinates": [[[[73.8632, 18.5201], [73.8656, 18.5201], [73.8656, 18.5225], [73.8632, 18.5225], [73.8632, 18.5201]]]]}}, {"type": "Feature", "properties": {"ulpin": "SYN00000000048", "khasra_number": "8/48", "data_source": "SYNTHETIC"}, "geometry": {"type": "MultiPolygon", "coordinates": [[[[85.8895, 20.4625], [85.89189999999999, 20.4625], [85.89189999999999, 20.4649], [85.8895, 20.4649], [85.8895, 20.4625]]]]}}, {"type": "Feature", "properties": {"ulpin": "SYN00000000017", "khasra_number": "7/17", "data_source": "SYNTHETIC"}, "geometry": {"type": "MultiPolygon", "coordinates": [[[[78.49210000000001, 17.3721], [78.4945, 17.3721], [78.4945, 17.3745], [78.49210000000001, 17.3745], [78.49210000000001, 17.3721]]]]}}, {"type": "Feature", "properties": {"ulpin": "SYN00000000033", "khasra_number": "3/33", "data_source": "SYNTHETIC"}, "geometry": {"type": "MultiPolygon", "coordinates": [[[[73.84370000000001, 18.5201], [73.8461, 18.5201], [73.8461, 18.5225], [73.84370000000001, 18.5225], [73.84370000000001, 18.5201]]]]}}, {"type": "Feature", "properties": {"ulpin": "SYN00000000034", "khasra_number": "4/34", "data_source": "SYNTHETIC"}, "geometry": {"type": "MultiPolygon", "coordinates": [[[[73.8448, 18.5321], [73.8472, 18.5321], [73.8472, 18.5345], [73.8448, 18.5345], [73.8448, 18.5321]]]]}}, {"type": "Feature", "properties": {"ulpin": "SYN00000000045", "khasra_number": "5/45", "data_source": "SYNTHETIC"}, "geometry": {"type": "MultiPolygon", "coordinates": [[[[85.8722, 20.4865], [85.8746, 20.4865], [85.8746, 20.4889], [85.8722, 20.4889], [85.8722, 20.4865]]]]}}, {"type": "Feature", "properties": {"ulpin": "SYN00000000052", "khasra_number": "2/52", "data_source": "SYNTHETIC"}, "geometry": {"type": "MultiPolygon", "coordinates": [[[[85.6039, 20.170299999999997], [85.60629999999999, 20.170299999999997], [85.60629999999999, 20.1727], [85.6039, 20.1727], [85.6039, 20.170299999999997]]]]}}, {"type": "Feature", "properties": {"ulpin": "SYN00000000013", "khasra_number": "3/13", "data_source": "SYNTHETIC"}, "geometry": {"type": "MultiPolygon", "coordinates": [[[[78.47370000000001, 17.3841], [78.4761, 17.3841], [78.4761, 17.3865], [78.47370000000001, 17.3865], [78.47370000000001, 17.3841]]]]}}, {"type": "Feature", "properties": {"ulpin": "SYN00000000004", "khasra_number": "4/4", "data_source": "SYNTHETIC"}, "geometry": {"type": "MultiPolygon", "coordinates": [[[[78.2731, 17.2651], [78.2755, 17.2651], [78.2755, 17.267500000000002], [78.2731, 17.267500000000002], [78.2731, 17.2651]]]]}}, {"type": "Feature", "properties": {"ulpin": "SYN00000000028", "khasra_number": "8/28", "data_source": "SYNTHETIC"}, "geometry": {"type": "MultiPolygon", "coordinates": [[[[79.0947, 21.1452], [79.0971, 21.1452], [79.0971, 21.1476], [79.0947, 21.1476], [79.0947, 21.1452]]]]}}, {"type": "Feature", "properties": {"ulpin": "SYN00000000002", "khasra_number": "2/2", "data_source": "SYNTHETIC"}, "geometry": {"type": "MultiPolygon", "coordinates": [[[[78.2709, 17.2411], [78.27329999999999, 17.2411], [78.27329999999999, 17.2435], [78.2709, 17.2435], [78.2709, 17.2411]]]]}}, {"type": "Feature", "properties": {"ulpin": "SYN00000000044", "khasra_number": "4/44", "data_source": "SYNTHETIC"}, "geometry": {"type": "MultiPolygon", "coordinates": [[[[85.8711, 20.4745], [85.87349999999999, 20.4745], [85.87349999999999, 20.4769], [85.8711, 20.4769], [85.8711, 20.4745]]]]}}, {"type": "Feature", "properties": {"ulpin": "SYN00000000006", "khasra_number": "6/6", "data_source": "SYNTHETIC"}, "geometry": {"type": "MultiPolygon", "coordinates": [[[[78.2893, 17.2291], [78.29169999999999, 17.2291], [78.29169999999999, 17.2315], [78.2893, 17.2315], [78.2893, 17.2291]]]]}}, {"type": "Feature", "properties": {"ulpin": "SYN00000000016", "khasra_number": "6/16", "data_source": "SYNTHETIC"}, "geometry": {"type": "MultiPolygon", "coordinates": [[[[78.491, 17.3601], [78.4934, 17.3601], [78.4934, 17.3625], [78.491, 17.3625], [78.491, 17.3601]]]]}}, {"type": "Feature", "properties": {"ulpin": "SYN00000000025", "khasra_number": "5/25", "data_source": "SYNTHETIC"}, "geometry": {"type": "MultiPolygon", "coordinates": [[[[79.07740000000001, 21.1692], [79.0798, 21.1692], [79.0798, 21.1716], [79.07740000000001, 21.1716], [79.07740000000001, 21.1692]]]]}}, {"type": "Feature", "properties": {"ulpin": "SYN00000000049", "khasra_number": "9/49", "data_source": "SYNTHETIC"}, "geometry": {"type": "MultiPolygon", "coordinates": [[[[85.89059999999999, 20.4745], [85.89299999999999, 20.4745], [85.89299999999999, 20.4769], [85.89059999999999, 20.4769], [85.89059999999999, 20.4745]]]]}}, {"type": "Feature", "properties": {"ulpin": "SYN00000000022", "khasra_number": "2/22", "data_source": "SYNTHETIC"}, "geometry": {"type": "MultiPolygon", "coordinates": [[[[79.0741, 21.1332], [79.0765, 21.1332], [79.0765, 21.1356], [79.0741, 21.1356], [79.0741, 21.1332]]]]}}, {"type": "Feature", "properties": {"ulpin": "SYN00000000055", "khasra_number": "5/55", "data_source": "SYNTHETIC"}, "geometry": {"type": "MultiPolygon", "coordinates": [[[[85.6072, 20.2063], [85.6096, 20.2063], [85.6096, 20.2087], [85.6072, 20.2087], [85.6072, 20.2063]]]]}}, {"type": "Feature", "properties": {"ulpin": "SYN00000000043", "khasra_number": "3/43", "data_source": "SYNTHETIC"}, "geometry": {"type": "MultiPolygon", "coordinates": [[[[85.87, 20.4625], [85.8724, 20.4625], [85.8724, 20.4649], [85.87, 20.4649], [85.87, 20.4625]]]]}}, {"type": "Feature", "properties": {"ulpin": "SYN00000000011", "khasra_number": "1/11", "data_source": "SYNTHETIC"}, "geometry": {"type": "MultiPolygon", "coordinates": [[[[78.4715, 17.3601], [78.4739, 17.3601], [78.4739, 17.3625], [78.4715, 17.3625], [78.4715, 17.3601]]]]}}, {"type": "Feature", "properties": {"ulpin": "SYN00000000054", "khasra_number": "4/54", "data_source": "SYNTHETIC"}, "geometry": {"type": "MultiPolygon", "coordinates": [[[[85.6061, 20.1943], [85.60849999999999, 20.1943], [85.60849999999999, 20.1967], [85.6061, 20.1967], [85.6061, 20.1943]]]]}}, {"type": "Feature", "properties": {"ulpin": "SYN00000000015", "khasra_number": "5/15", "data_source": "SYNTHETIC"}, "geometry": {"type": "MultiPolygon", "coordinates": [[[[78.47590000000001, 17.4081], [78.4783, 17.4081], [78.4783, 17.410500000000003], [78.47590000000001, 17.410500000000003], [78.47590000000001, 17.4081]]]]}}, {"type": "Feature", "properties": {"ulpin": "SYN00000000056", "khasra_number": "6/56", "data_source": "SYNTHETIC"}, "geometry": {"type": "MultiPolygon", "coordinates": [[[[85.6223, 20.158299999999997], [85.62469999999999, 20.158299999999997], [85.62469999999999, 20.1607], [85.6223, 20.1607], [85.6223, 20.158299999999997]]]]}}, {"type": "Feature", "properties": {"ulpin": "SYN00000000032", "khasra_number": "2/32", "data_source": "SYNTHETIC"}, "geometry": {"type": "MultiPolygon", "coordinates": [[[[73.8426, 18.5081], [73.845, 18.5081], [73.845, 18.5105], [73.8426, 18.5105], [73.8426, 18.5081]]]]}}, {"type": "Feature", "properties": {"ulpin": "SYN00000000046", "khasra_number": "6/46", "data_source": "SYNTHETIC"}, "geometry": {"type": "MultiPolygon", "coordinates": [[[[85.8873, 20.438499999999998], [85.88969999999999, 20.438499999999998], [85.88969999999999, 20.4409], [85.8873, 20.4409], [85.8873, 20.438499999999998]]]]}}, {"type": "Feature", "properties": {"ulpin": "SYN00000000003", "khasra_number": "3/3", "data_source": "SYNTHETIC"}, "geometry": {"type": "MultiPolygon", "coordinates": [[[[78.272, 17.2531], [78.2744, 17.2531], [78.2744, 17.2555], [78.272, 17.2555], [78.272, 17.2531]]]]}}, {"type": "Feature", "properties": {"ulpin": "SYN00000000042", "khasra_number": "2/42", "data_source": "SYNTHETIC"}, "geometry": {"type": "MultiPolygon", "coordinates": [[[[85.8689, 20.450499999999998], [85.87129999999999, 20.450499999999998], [85.87129999999999, 20.4529], [85.8689, 20.4529], [85.8689, 20.450499999999998]]]]}}, {"type": "Feature", "properties": {"ulpin": "SYN00000000037", "khasra_number": "7/37", "data_source": "SYNTHETIC"}, "geometry": {"type": "MultiPolygon", "coordinates": [[[[73.86210000000001, 18.5081], [73.8645, 18.5081], [73.8645, 18.5105], [73.86210000000001, 18.5105], [73.86210000000001, 18.5081]]]]}}, {"type": "Feature", "properties": {"ulpin": "SYN00000000035", "khasra_number": "5/35", "data_source": "SYNTHETIC"}, "geometry": {"type": "MultiPolygon", "coordinates": [[[[73.84590000000001, 18.5441], [73.84830000000001, 18.5441], [73.84830000000001, 18.5465], [73.84590000000001, 18.5465], [73.84590000000001, 18.5441]]]]}}, {"type": "Feature", "properties": {"ulpin": "SYN00000000020", "khasra_number": "10/20", "data_source": "SYNTHETIC"}, "geometry": {"type": "MultiPolygon", "coordinates": [[[[78.4954, 17.4081], [78.4978, 17.4081], [78.4978, 17.410500000000003], [78.4954, 17.410500000000003], [78.4954, 17.4081]]]]}}, {"type": "Feature", "properties": {"ulpin": "SYN00000000047", "khasra_number": "7/47", "data_source": "SYNTHETIC"}, "geometry": {"type": "MultiPolygon", "coordinates": [[[[85.8884, 20.450499999999998], [85.8908, 20.450499999999998], [85.8908, 20.4529], [85.8884, 20.4529], [85.8884, 20.450499999999998]]]]}}, {"type": "Feature", "properties": {"ulpin": "SYN00000000058", "khasra_number": "8/58", "data_source": "SYNTHETIC"}, "geometry": {"type": "MultiPolygon", "coordinates": [[[[85.6245, 20.182299999999998], [85.62689999999999, 20.182299999999998], [85.62689999999999, 20.1847], [85.6245, 20.1847], [85.6245, 20.182299999999998]]]]}}, {"type": "Feature", "properties": {"ulpin": "SYN00000000019", "khasra_number": "9/19", "data_source": "SYNTHETIC"}, "geometry": {"type": "MultiPolygon", "coordinates": [[[[78.4943, 17.3961], [78.49669999999999, 17.3961], [78.49669999999999, 17.398500000000002], [78.4943, 17.398500000000002], [78.4943, 17.3961]]]]}}, {"type": "Feature", "properties": {"ulpin": "SYN00000000040", "khasra_number": "10/40", "data_source": "SYNTHETIC"}, "geometry": {"type": "MultiPolygon", "coordinates": [[[[73.86540000000001, 18.5441], [73.8678, 18.5441], [73.8678, 18.5465], [73.86540000000001, 18.5465], [73.86540000000001, 18.5441]]]]}}]}